[
{"CCSDS_OMM_VERS":"2.0",
"COMMENT":"GENERATED VIA SPACE-TRACK.ORG API",
"CREATION_DATE":"2022-11-13T15:06:13",
"ORIGINATOR":"18 SPCS",
"OBJECT_NAME":"VANGUARD 1",
"OBJECT_ID":"1958-002B",
"CENTER_NAME":"EARTH",
"REF_FRAME":"TEME",
"TIME_SYSTEM":"UTC",
"MEAN_ELEMENT_THEORY":"SGP4",
"EPOCH":"2022-11-13T10:22:06.381984",
"MEAN_MOTION":"10.85033307",
"ECCENTRICITY":"0.18462620",
"INCLINATION":"34.2528",
"RA_OF_ASC_NODE":"40.2866",
"ARG_OF_PERICENTER":"348.1324",
"MEAN_ANOMALY":"8.0865",
"EPHEMERIS_TYPE":"0",
"CLASSIFICATION_TYPE":"U",
"NORAD_CAT_ID":"5",
"ELEMENT_SET_NO":"999",
"REV_AT_EPOCH":"30082",
"BSTAR":"0.00024375000000",
"MEAN_MOTION_DOT":"0.00000189",
"MEAN_MOTION_DDOT":"0.0000000000000",
"SEMIMAJOR_AXIS":"8618.661",
"PERIOD":"132.715",
"APOAPSIS":"3831.757",
"PERIAPSIS":"649.295",
"OBJECT_TYPE":"PAYLOAD",
"RCS_SIZE":"SMALL",
"COUNTRY_CODE":"US",
"LAUNCH_DATE":"1958-03-17",
"SITE":"AFETR",
"DECAY_DATE":null,
"FILE":"3653040",
"GP_ID":"217599451",
"TLE_LINE0":"0 VANGUARD 1",
"TLE_LINE1":"1     5U 58002B   22317.43201831  .00000189  00000-0  24375-3 0  9999",
"TLE_LINE2":"2     5  34.2528  40.2866 1846262 348.1324   8.0865 10.85033307300821"},
{"CCSDS_OMM_VERS":"2.0",
"COMMENT":"GENERATED VIA SPACE-TRACK.ORG API",
"CREATION_DATE":"2022-11-14T03:42:59",
"ORIGINATOR":"18 SPCS",
"OBJECT_NAME":"VANGUARD 1",
"OBJECT_ID":"1958-002B",
"CENTER_NAME":"EARTH",
"REF_FRAME":"TEME",
"TIME_SYSTEM":"UTC",
"MEAN_ELEMENT_THEORY":"SGP4",
"EPOCH":"2022-11-13T14:47:19.670496",
"MEAN_MOTION":"10.85033387",
"ECCENTRICITY":"0.18462460",
"INCLINATION":"34.2527",
"RA_OF_ASC_NODE":"39.7191",
"ARG_OF_PERICENTER":"348.9618",
"MEAN_ANOMALY":"7.5220",
"EPHEMERIS_TYPE":"0",
"CLASSIFICATION_TYPE":"U",
"NORAD_CAT_ID":"5",
"ELEMENT_SET_NO":"999",
"REV_AT_EPOCH":"30074",
"BSTAR":"0.00024095000000",
"MEAN_MOTION_DOT":"0.00000186",
"MEAN_MOTION_DDOT":"0.0000000000000",
"SEMIMAJOR_AXIS":"8618.660",
"PERIOD":"132.715",
"APOAPSIS":"3831.742",
"PERIAPSIS":"649.309",
"OBJECT_TYPE":"PAYLOAD",
"RCS_SIZE":"SMALL",
"COUNTRY_CODE":"US",
"LAUNCH_DATE":"1958-03-17",
"SITE":"AFETR",
"DECAY_DATE":null,
"FILE":"3653957",
"GP_ID":"217670219",
"TLE_LINE0":"0 VANGUARD 1",
"TLE_LINE1":"1 00005U 58002B   22317.61619989  .00000186  00000-0  24095-3 0  9992",
"TLE_LINE2":"2 00005  34.2527  39.7191 1846246 348.9618   7.5220 10.85033387300748"},
{"CCSDS_OMM_VERS":"2.0",
"COMMENT":"GENERATED VIA SPACE-TRACK.ORG API",
"CREATION_DATE":"2022-11-14T19:53:38",
"ORIGINATOR":"18 SPCS",
"OBJECT_NAME":"VANGUARD 1",
"OBJECT_ID":"1958-002B",
"CENTER_NAME":"EARTH",
"REF_FRAME":"TEME",
"TIME_SYSTEM":"UTC",
"MEAN_ELEMENT_THEORY":"SGP4",
"EPOCH":"2022-11-14T10:40:49.582848",
"MEAN_MOTION":"10.85033672",
"ECCENTRICITY":"0.18461970",
"INCLINATION":"34.2523",
"RA_OF_ASC_NODE":"37.1646",
"ARG_OF_PERICENTER":"352.6934",
"MEAN_ANOMALY":"4.9873",
"EPHEMERIS_TYPE":"0",
"CLASSIFICATION_TYPE":"U",
"NORAD_CAT_ID":"5",
"ELEMENT_SET_NO":"999",
"REV_AT_EPOCH":"30083",
"BSTAR":"0.00022915000000",
"MEAN_MOTION_DOT":"0.00000176",
"MEAN_MOTION_DDOT":"0.0000000000000",
"SEMIMAJOR_AXIS":"8618.659",
"PERIOD":"132.715",
"APOAPSIS":"3831.698",
"PERIAPSIS":"649.350",
"OBJECT_TYPE":"PAYLOAD",
"RCS_SIZE":"SMALL",
"COUNTRY_CODE":"US",
"LAUNCH_DATE":"1958-03-17",
"SITE":"AFETR",
"DECAY_DATE":null,
"FILE":"3654975",
"GP_ID":"217718284",
"TLE_LINE0":"0 VANGUARD 1",
"TLE_LINE1":"1 00005U 58002B   22318.44501832  .00000176  00000-0  22915-3 0  9999",
"TLE_LINE2":"2 00005  34.2523  37.1646 1846197 352.6934   4.9873 10.85033672300831"},
{"CCSDS_OMM_VERS":"2.0",
"COMMENT":"GENERATED VIA SPACE-TRACK.ORG API",
"CREATION_DATE":"2022-11-15T02:21:27",
"ORIGINATOR":"18 SPCS",
"OBJECT_NAME":"VANGUARD 1",
"OBJECT_ID":"1958-002B",
"CENTER_NAME":"EARTH",
"REF_FRAME":"TEME",
"TIME_SYSTEM":"UTC",
"MEAN_ELEMENT_THEORY":"SGP4",
"EPOCH":"2022-11-14T15:06:02.906784",
"MEAN_MOTION":"10.85033763",
"ECCENTRICITY":"0.18461870",
"INCLINATION":"34.2521",
"RA_OF_ASC_NODE":"36.5968",
"ARG_OF_PERICENTER":"353.5229",
"MEAN_ANOMALY":"4.4249",
"EPHEMERIS_TYPE":"0",
"CLASSIFICATION_TYPE":"U",
"NORAD_CAT_ID":"5",
"ELEMENT_SET_NO":"999",
"REV_AT_EPOCH":"30085",
"BSTAR":"0.00022914000000",
"MEAN_MOTION_DOT":"0.00000175",
"MEAN_MOTION_DDOT":"0.0000000000000",
"SEMIMAJOR_AXIS":"8618.659",
"PERIOD":"132.715",
"APOAPSIS":"3831.689",
"PERIAPSIS":"649.358",
"OBJECT_TYPE":"PAYLOAD",
"RCS_SIZE":"SMALL",
"COUNTRY_CODE":"US",
"LAUNCH_DATE":"1958-03-17",
"SITE":"AFETR",
"DECAY_DATE":null,
"FILE":"3656014",
"GP_ID":"217763256",
"TLE_LINE0":"0 VANGUARD 1",
"TLE_LINE1":"1 00005U 58002B   22318.62920031  .00000175  00000-0  22914-3 0  9993",
"TLE_LINE2":"2 00005  34.2521  36.5968 1846187 353.5229   4.4249 10.85033763300850"},
{"CCSDS_OMM_VERS":"2.0",
"COMMENT":"GENERATED VIA SPACE-TRACK.ORG API",
"CREATION_DATE":"2022-11-15T15:36:13",
"ORIGINATOR":"18 SPCS",
"OBJECT_NAME":"VANGUARD 1",
"OBJECT_ID":"1958-002B",
"CENTER_NAME":"EARTH",
"REF_FRAME":"TEME",
"TIME_SYSTEM":"UTC",
"MEAN_ELEMENT_THEORY":"SGP4",
"EPOCH":"2022-11-15T13:12:09.638784",
"MEAN_MOTION":"10.85034058",
"ECCENTRICITY":"0.18461410",
"INCLINATION":"34.2517",
"RA_OF_ASC_NODE":"33.7585",
"ARG_OF_PERICENTER":"357.6694",
"MEAN_ANOMALY":"1.6171",
"EPHEMERIS_TYPE":"0",
"CLASSIFICATION_TYPE":"U",
"NORAD_CAT_ID":"5",
"ELEMENT_SET_NO":"999",
"REV_AT_EPOCH":"30105",
"BSTAR":"0.00021805000000",
"MEAN_MOTION_DOT":"0.00000165",
"MEAN_MOTION_DDOT":"0.0000000000000",
"SEMIMAJOR_AXIS":"8618.657",
"PERIOD":"132.715",
"APOAPSIS":"3831.648",
"PERIAPSIS":"649.396",
"OBJECT_TYPE":"PAYLOAD",
"RCS_SIZE":"SMALL",
"COUNTRY_CODE":"US",
"LAUNCH_DATE":"1958-03-17",
"SITE":"AFETR",
"DECAY_DATE":null,
"FILE":"3657509",
"GP_ID":"217821038",
"TLE_LINE0":"0 VANGUARD 1",
"TLE_LINE1":"1     5U 58002B   22319.55011156  .00000165  00000-0  21805-3 0  9992",
"TLE_LINE2":"2     5  34.2517  33.7585 1846141 357.6694   1.6171 10.85034058301054"},
{"CCSDS_OMM_VERS":"2.0",
"COMMENT":"GENERATED VIA SPACE-TRACK.ORG API",
"CREATION_DATE":"2022-11-16T17:44:19",
"ORIGINATOR":"18 SPCS",
"OBJECT_NAME":"VANGUARD 1",
"OBJECT_ID":"1958-002B",
"CENTER_NAME":"EARTH",
"REF_FRAME":"TEME",
"TIME_SYSTEM":"UTC",
"MEAN_ELEMENT_THEORY":"SGP4",
"EPOCH":"2022-11-16T13:30:53.074656",
"MEAN_MOTION":"10.85034357",
"ECCENTRICITY":"0.18460910",
"INCLINATION":"34.2511",
"RA_OF_ASC_NODE":"30.6361",
"ARG_OF_PERICENTER":"2.2311",
"MEAN_ANOMALY":"358.5309",
"EPHEMERIS_TYPE":"0",
"CLASSIFICATION_TYPE":"U",
"NORAD_CAT_ID":"5",
"ELEMENT_SET_NO":"999",
"REV_AT_EPOCH":"30106",
"BSTAR":"0.00019955000000",
"MEAN_MOTION_DOT":"0.00000149",
"MEAN_MOTION_DDOT":"0.0000000000000",
"SEMIMAJOR_AXIS":"8618.655",
"PERIOD":"132.715",
"APOAPSIS":"3831.603",
"PERIAPSIS":"649.438",
"OBJECT_TYPE":"PAYLOAD",
"RCS_SIZE":"SMALL",
"COUNTRY_CODE":"US",
"LAUNCH_DATE":"1958-03-17",
"SITE":"AFETR",
"DECAY_DATE":null,
"FILE":"3659788",
"GP_ID":"217949838",
"TLE_LINE0":"0 VANGUARD 1",
"TLE_LINE1":"1 00005U 58002B   22320.56311429  .00000149  00000-0  19955-3 0  9996",
"TLE_LINE2":"2 00005  34.2511  30.6361 1846091   2.2311 358.5309 10.85034357301069"},
{"CCSDS_OMM_VERS":"2.0",
"COMMENT":"GENERATED VIA SPACE-TRACK.ORG API",
"CREATION_DATE":"2022-11-17T18:40:42",
"ORIGINATOR":"18 SPCS",
"OBJECT_NAME":"VANGUARD 1",
"OBJECT_ID":"1958-002B",
"CENTER_NAME":"EARTH",
"REF_FRAME":"TEME",
"TIME_SYSTEM":"UTC",
"MEAN_ELEMENT_THEORY":"SGP4",
"EPOCH":"2022-11-17T11:36:59.765184",
"MEAN_MOTION":"10.85034649",
"ECCENTRICITY":"0.18460580",
"INCLINATION":"34.2507",
"RA_OF_ASC_NODE":"27.7976",
"ARG_OF_PERICENTER":"6.3782",
"MEAN_ANOMALY":"355.7228",
"EPHEMERIS_TYPE":"0",
"CLASSIFICATION_TYPE":"U",
"NORAD_CAT_ID":"5",
"ELEMENT_SET_NO":"999",
"REV_AT_EPOCH":"30116",
"BSTAR":"0.00019356000000",
"MEAN_MOTION_DOT":"0.00000143",
"MEAN_MOTION_DDOT":"0.0000000000000",
"SEMIMAJOR_AXIS":"8618.654",
"PERIOD":"132.715",
"APOAPSIS":"3831.572",
"PERIAPSIS":"649.465",
"OBJECT_TYPE":"PAYLOAD",
"RCS_SIZE":"SMALL",
"COUNTRY_CODE":"US",
"LAUNCH_DATE":"1958-03-17",
"SITE":"AFETR",
"DECAY_DATE":null,
"FILE":"3661693",
"GP_ID":"218043663",
"TLE_LINE0":"0 VANGUARD 1",
"TLE_LINE1":"1 00005U 58002B   22321.48402506  .00000143  00000-0  19356-3 0  9994",
"TLE_LINE2":"2 00005  34.2507  27.7976 1846058   6.3782 355.7228 10.85034649301167"},
{"CCSDS_OMM_VERS":"2.0",
"COMMENT":"GENERATED VIA SPACE-TRACK.ORG API",
"CREATION_DATE":"2022-11-18T14:56:13",
"ORIGINATOR":"18 SPCS",
"OBJECT_NAME":"VANGUARD 1",
"OBJECT_ID":"1958-002B",
"CENTER_NAME":"EARTH",
"REF_FRAME":"TEME",
"TIME_SYSTEM":"UTC",
"MEAN_ELEMENT_THEORY":"SGP4",
"EPOCH":"2022-11-18T05:17:52.996992",
"MEAN_MOTION":"10.85034791",
"ECCENTRICITY":"0.18460330",
"INCLINATION":"34.2504",
"RA_OF_ASC_NODE":"25.5267",
"ARG_OF_PERICENTER":"9.6961",
"MEAN_ANOMALY":"353.4714",
"EPHEMERIS_TYPE":"0",
"CLASSIFICATION_TYPE":"U",
"NORAD_CAT_ID":"5",
"ELEMENT_SET_NO":"999",
"REV_AT_EPOCH":"30134",
"BSTAR":"0.00017271000000",
"MEAN_MOTION_DOT":"0.00000125",
"MEAN_MOTION_DDOT":"0.0000000000000",
"SEMIMAJOR_AXIS":"8618.653",
"PERIOD":"132.715",
"APOAPSIS":"3831.550",
"PERIAPSIS":"649.486",
"OBJECT_TYPE":"PAYLOAD",
"RCS_SIZE":"SMALL",
"COUNTRY_CODE":"US",
"LAUNCH_DATE":"1958-03-17",
"SITE":"AFETR",
"DECAY_DATE":null,
"FILE":"3662332",
"GP_ID":"218108971",
"TLE_LINE0":"0 VANGUARD 1",
"TLE_LINE1":"1     5U 58002B   22322.22075228  .00000125  00000-0  17271-3 0  9998",
"TLE_LINE2":"2     5  34.2504  25.5267 1846033   9.6961 353.4714 10.85034791301344"}]